BEIJING 1               
1 28890U 05043A   22310.46902200  .00000530  00000+0  11609-3 0  9997
2 28890  98.1355  70.3997 0016479  90.1312 270.1777 14.61534937907884
HJ-1A                   
1 33320U 08041A   22310.53291902  .00000537  00000+0  80890-4 0  9996
2 33320  97.6660 336.8521 0022359 128.0037 232.3183 14.77975189763373
HJ-1B                   
1 33321U 08041B   22310.55198662  .00001189  00000+0  16998-3 0  9999
2 33321  97.6821 340.7202 0034927 146.1656 214.1789 14.77999098763370
YAOGAN 4                
1 33446U 08061A   22310.39792710  .00001084  00000+0  15848-3 0  9992
2 33446  97.8292 246.2861 0017173  38.8226 321.4215 14.77558061750550
DEIMOS-1                
1 35681U 09041A   22310.45668591  .00000551  00000+0  94823-4 0  9999
2 35681  97.6964 154.1423 0002849 111.9487 248.2016 14.72162002712660
UK-DMC 2                
1 35683U 09041C   22310.54222395  .00000805  00000+0  13691-3 0  9994
2 35683  97.7081 116.0375 0001484 111.2867 248.8488 14.71577075712405
RISAT 1                 
1 38248U 12017A   22310.51911814  .00005409  00000+0  31078-3 0  9993
2 38248  97.5509 320.3936 0005393 117.8646 242.3132 15.12907741580312
DMC3-FM1                
1 40715U 15032A   22310.57389553  .00001385  00000+0  17997-3 0  9993
2 40715  97.8252 194.4468 0007141  64.9908 295.2068 14.82264939394340
DMC3-FM2                
1 40716U 15032B   22310.52961277  .00001139  00000+0  14908-3 0  9994
2 40716  97.8298 195.1184 0009175  65.4044 294.8128 14.82258307394344
DMC3-FM3                
1 40717U 15032C   22310.54996579  .00000475  00000+0  65889-4 0  9997
2 40717  97.8333 196.1146 0010972  62.4793 297.7538 14.82309391394346
